ONEWEB-0264             
1 48982U 21060R   23345.60877808 -.00000232  00000+0 -63920-3 0  9992
2 48982  87.9087  51.6111 0001704 101.5823 258.5500 13.16593279118729
ONEWEB-0266             
1 48984U 21060T   23345.55494965 -.00001731  00000+0 -45606-2 0  9992
2 48984  87.9084  51.6047 0001790 103.7253 256.4077 13.16603050118705
ONEWEB-0267             
1 48985U 21060U   23345.56550162  .00000122  00000+0  28451-3 0  9997
2 48985  87.9086  51.6038 0001484 114.9730 245.1556 13.16594374118718
ONEWEB-0268             
1 48986U 21060V   23345.60985905 -.00000044  00000+0 -14859-3 0  9992
2 48986  87.9084  51.5997 0001613  99.4624 260.6689 13.16591930118986
ONEWEB-0269             
1 48987U 21060W   23345.59083776 -.00000006  00000+0 -50326-4 0  9994
2 48987  87.9090  51.6290 0001833  99.7837 260.3501 13.16594213118756
ONEWEB-0270             
1 48988U 21060X   23345.22775569  .00000145  00000+0  34607-3 0  9998
2 48988  87.9084  51.6877 0001870 124.0050 236.1259 13.16595841118749
ONEWEB-0271             
1 48989U 21060Y   23345.59505802  .00000002  00000+0 -28436-4 0  9997
2 48989  87.9084  51.5889 0001591 120.7511 239.3776 13.16592298118794
ONEWEB-0272             
1 48990U 21060Z   23345.23828911 -.00000035  00000+0 -12478-3 0  9994
2 48990  87.9077  51.6866 0001697  97.4953 262.6371 13.16599111118691
